H1 CPF  1  DLR 2022 04 13 10  6032 technosat            
H2  1704205 6203    42829 2022 04 13 00 00 00 2022 04 20 00 00 00    60 1 1  0 0 0
H9
10 0 59682  50400.000000  0       -484447.653       5745056.721       3909879.521
10 0 59682  50460.000000  0       -407734.198       5991328.779       3530692.510
10 0 59682  50520.000000  0       -327257.950       6211615.143       3136489.336
10 0 59682  50580.000000  0       -243589.944       6404946.197       2728942.160
10 0 59682  50640.000000  0       -157322.984       6570471.863       2309781.404
10 0 59682  50700.000000  0        -69067.995       6707465.553       1880788.361
10 0 59682  50760.000000  0         20549.696       6815327.713       1443787.468
10 0 59682  50820.000000  0        110894.181       6893588.695       1000638.320
10 0 59682  50880.000000  0        201322.861       6941911.031        553227.539
10 0 59682  50940.000000  0        291190.422       6960091.110        103460.458
10 0 59682  51000.000000  0        379852.852       6948060.141       -346747.367
10 0 59682  51060.000000  0        466671.413       6905884.374       -795478.667
10 0 59682  51120.000000  0        551016.544       6833764.669      -1240822.937
10 0 59682  51180.000000  0        632271.720       6732035.435      -1680884.861
10 0 59682  51240.000000  0        709837.231       6601162.915      -2113792.654
10 0 59682  51300.000000  0        783133.885       6441742.837      -2537706.272
10 0 59682  51360.000000  0        851606.594       6254497.433      -2950825.444
10 0 59682  51420.000000  0        914727.828       6040271.864      -3351397.504
10 0 59682  51480.000000  0        972000.889       5800030.053      -3737724.965
10 0 59682  51540.000000  0       1022963.012       5534849.955      -4108172.790
10 0 59682  51600.000000  0       1067188.261       5245918.320      -4461175.330
10 0 59682  51660.000000  0       1104290.217       4934524.958      -4795242.893
10 0 59682  51720.000000  0       1133924.436       4602056.584      -5108967.901
10 0 59682  51780.000000  0       1155790.652       4249990.278      -5401030.641
10 0 59682  51840.000000  0       1169634.712       3879886.615      -5670204.625
10 0 59682  51900.000000  0       1175250.261       3493382.442      -5915361.552
10 0 59682  51960.000000  0       1172480.165       3092183.311      -6135475.760
10 0 59682  52020.000000  0       1161217.651       2678055.729      -6329628.162
10 0 59682  52080.000000  0       1141407.161       2252819.228      -6497009.726
10 0 59682  52140.000000  0       1113044.954       1818338.348      -6636924.531
10 0 59682  52200.000000  0       1076179.420       1376514.428      -6748792.446
10 0 59682  52260.000000  0       1030911.090        929277.226      -6832151.264
10 0 59682  52320.000000  0        977392.413        478576.553      -6886658.336
10 0 59682  52380.000000  0        915827.238         26373.834      -6912091.811
10 0 59682  52440.000000  0        846469.990       -425366.390      -6908351.340
10 0 59682  52500.000000  0        769624.583       -874684.835      -6875458.271
10 0 59682  52560.000000  0        685643.093      -1319635.794      -6813555.459
10 0 59682  52620.000000  0        594924.179      -1758295.370      -6722906.588
10 0 59682  52680.000000  0        497911.263      -2188769.560      -6603895.157
10 0 59682  52740.000000  0        395090.426      -2609202.363      -6457023.095
10 0 59682  52800.000000  0        286988.018      -3017783.803      -6282908.763
10 0 59682  52860.000000  0        174168.063      -3412757.676      -6082284.430
10 0 59682  52920.000000  0         57229.482      -3792429.027      -5855993.361
10 0 59682  52980.000000  0        -63196.892      -4155171.419      -5604986.519
10 0 59682  53040.000000  0       -186451.530      -4499433.975      -5330318.820
10 0 59682  53100.000000  0       -311849.611      -4823748.116      -5033144.944
10 0 59682  53160.000000  0       -438684.610      -5126733.979      -4714714.719
10 0 59682  53220.000000  0       -566232.043      -5407106.491      -4376368.083
10 0 59682  53280.000000  0       -693753.352      -5663681.033      -4019529.625
10 0 59682  53340.000000  0       -820499.905      -5895378.680      -3645702.750
10 0 59682  53400.000000  0       -945717.087      -6101230.978      -3256463.472
10 0 59682  53460.000000  0      -1068648.489      -6280384.237      -2853453.896
10 0 59682  53520.000000  0      -1188540.141      -6432103.378      -2438375.376
10 0 59682  53580.000000  0      -1304644.795      -6555775.241      -2012981.315
10 0 59682  53640.000000  0      -1416226.181      -6650911.292      -1579069.709
10 0 59682  53700.000000  0      -1522563.255      -6717149.765      -1138475.469
10 0 59682  53760.000000  0      -1622954.405      -6754257.203       -693062.541
10 0 59682  53820.000000  0      -1716721.577      -6762129.375       -244715.884
10 0 59682  53880.000000  0      -1803214.322      -6740791.599        204666.658
10 0 59682  53940.000000  0      -1881813.727      -6690398.434        653182.556
10 0 59682  54000.000000  0      -1951936.190      -6611232.760       1098932.838
10 0 59682  54060.000000  0      -2013037.031      -6503704.241       1540030.308
10 0 59682  54120.000000  0      -2064613.906      -6368347.182       1974607.717
10 0 59682  54180.000000  0      -2106210.004      -6205817.788       2400825.839
10 0 59682  54240.000000  0      -2137417.003      -6016890.830       2816881.380
10 0 59682  54300.000000  0      -2157877.770      -5802455.778       3221014.702
10 0 59682  54360.000000  0      -2167288.806      -5563512.416       3611517.310
10 0 59682  54420.000000  0      -2165402.400      -5301165.973       3986739.095
10 0 59682  54480.000000  0      -2152028.495      -5016621.797       4345095.254
10 0 59682  54540.000000  0      -2127036.283      -4711179.634       4685072.916
10 0 59682  54600.000000  0      -2090355.507      -4386227.535       5005237.457
10 0 59682  54660.000000  0      -2041977.459      -4043235.333       5304238.504
10 0 59682  54720.000000  0      -1981955.631      -3683747.743       5580815.491
10 0 59682  54780.000000  0      -1910406.027      -3309377.232       5833802.742
10 0 59682  54840.000000  0      -1827507.154      -2921796.682       6062134.175
10 0 59682  54900.000000  0      -1733499.707      -2522731.851       6264847.558
10 0 59682  54960.000000  0      -1628685.947      -2113953.705       6441088.366
10 0 59682  55020.000000  0      -1513428.793      -1697270.561       6590113.256
10 0 59682  55080.000000  0      -1388150.610      -1274520.048       6711293.041
10 0 59682  55140.000000  0      -1253331.709       -847561.000       6804115.153
10 0 59682  55200.000000  0      -1109508.569       -418265.371       6868185.629
10 0 59682  55260.000000  0       -957271.765         11489.814       6903230.724
10 0 59682  55320.000000  0       -797263.587        439830.580       6909098.129
10 0 59682  55380.000000  0       -630175.366        864894.130       6885757.664
10 0 59682  55440.000000  0       -456744.529       1284836.869       6833301.472
10 0 59682  55500.000000  0       -277751.402       1697842.343       6751943.774
10 0 59682  55560.000000  0        -94015.746       2102129.091       6642020.134
10 0 59682  55620.000000  0         93606.941       2495958.284       6503986.202
10 0 59682  55680.000000  0        284229.307       2877641.176       6338416.066
10 0 59682  55740.000000  0        476936.259       3245546.430       6146000.145
10 0 59682  55800.000000  0        670789.260       3598107.214       5927542.564
10 0 59682  55860.000000  0        864830.825       3933828.013       5683958.041
10 0 59682  55920.000000  0       1058089.158       4251291.139       5416268.343
10 0 59682  55980.000000  0       1249582.958       4549162.971       5125598.289
10 0 59682  56040.000000  0       1438326.340       4826199.876       4813171.236
10 0 59682  56100.000000  0       1623333.822       5081253.648       4480304.077
10 0 59682  56160.000000  0       1803625.390       5313276.504       4128401.950
10 0 59682  56220.000000  0       1978231.682       5521325.753       3758952.591
10 0 59682  56280.000000  0       2146199.223       5704568.089       3373520.144
10 0 59682  56340.000000  0       2306595.477       5862283.357       2973738.423
10 0 59682  56400.000000  0       2458513.910       5993867.702       2561303.932
10 0 59682  56460.000000  0       2601079.086       6098836.170       2137968.571
10 0 59682  56520.000000  0       2733451.592       6176824.713       1705531.989
10 0 59682  56580.000000  0       2854832.752       6227591.585       1265833.709
10 0 59682  56640.000000  0       2964469.172       6251018.150        820745.084
10 0 59682  56700.000000  0       3061657.120       6247109.109        372161.093
10 0 59682  56760.000000  0       3145746.691       6215992.133        -78008.006
10 0 59682  56820.000000  0       3216145.740       6157916.876       -527845.143
10 0 59682  56880.000000  0       3272323.498       6073253.318       -975434.912
10 0 59682  56940.000000  0       3313813.866       5962489.579      -1418871.994
10 0 59682  57000.000000  0       3340218.427       5826229.187      -1856269.574
10 0 59682  57060.000000  0       3351209.117       5665187.729      -2285767.678
10 0 59682  57120.000000  0       3346530.516       5480188.962      -2705541.347
10 0 59682  57180.000000  0       3326001.753       5272160.389      -3113808.630
10 0 59682  57240.000000  0       3289517.994       5042128.336      -3508838.321
10 0 59682  57300.000000  0       3237051.555       4791212.582      -3888957.352
10 0 59682  57360.000000  0       3168652.652       4520620.676      -4252557.893
10 0 59682  57420.000000  0       3084449.728       4231641.855      -4598104.179
10 0 59682  57480.000000  0       2984649.355       3925640.595      -4924138.927
10 0 59682  57540.000000  0       2869535.809       3604049.902      -5229289.327
99
